[{"OBJECT_NAME":"LIZZIESAT-1 (LS-1)","OBJECT_ID":"2024-043AL","EPOCH":"2026-03-09T21:24:55.126944","MEAN_MOTION":15.26635712,"ECCENTRICITY":0.00099234,"INCLINATION":97.5461,"RA_OF_ASC_NODE":203.4772,"ARG_OF_PERICENTER":229.9925,"MEAN_ANOMALY":130.0443,"EPHEMERIS_TYPE":0,"CLASSIFICATION_TYPE":"U","NORAD_CAT_ID":59132,"ELEMENT_SET_NO":999,"REV_AT_EPOCH":11178,"BSTAR":0.0002232873,"MEAN_MOTION_DOT":5.784e-5,"MEAN_MOTION_DDOT":0},{"OBJECT_NAME":"YAOGAN-43 03B","OBJECT_ID":"2024-190B","EPOCH":"2026-03-09T13:02:57.184224","MEAN_MOTION":15.23292973,"ECCENTRICITY":0.00065493,"INCLINATION":34.9874,"RA_OF_ASC_NODE":104.3622,"ARG_OF_PERICENTER":178.8126,"MEAN_ANOMALY":181.2605,"EPHEMERIS_TYPE":0,"CLASSIFICATION_TYPE":"U","NORAD_CAT_ID":61618,"ELEMENT_SET_NO":999,"REV_AT_EPOCH":7666,"BSTAR":0.00046413742,"MEAN_MOTION_DOT":0.00011265,"MEAN_MOTION_DDOT":0}]
